BEIDOU-3 G1             
1 43683U 18085A   26117.33703758 -.00000117  00000+0  00000+0 0  9997
2 43683   2.9474  98.7204 0007400 333.3641  64.4946  1.00265526 27555
BEIDOU-3 M17            
1 43706U 18093A   26116.23519557 -.00000002  00000+0  00000+0 0  9995
2 43706  54.1668 184.0590 0009019 291.5360  74.8287  1.86228400 50578
BEIDOU-3 M18            
1 43707U 18093B   26117.16247674  .00000010  00000+0  00000+0 0  9995
2 43707  54.1675 184.0196 0007083 324.7692  35.2480  1.86226384 50581
BEIDOU-3 IGSO-1         
1 44204U 19023A   26110.03709628 -.00000228  00000+0  00000+0 0  9995
2 44204  58.6186  38.2497 0024357 235.9811  64.3555  1.00256582  6624
BEIDOU-2 G8             
1 44231U 19027A   26117.28915453 -.00000256  00000+0  00000+0 0  9999
2 44231   1.5311  74.3774 0011034 279.4377 110.0554  1.00268126 25578
BEIDOU-3 IGSO-2         
1 44337U 19035A   26117.01669462 -.00000091  00000+0  00000+0 0  9999
2 44337  55.2356 159.3113 0039369 215.1323 326.1005  1.00282395 25159
BEIDOU-3 M24            
1 44542U 19061A   26116.69481519  .00000003  00000+0  00000+0 0  9996
2 44542  54.3940 184.4646 0008047   6.3998 353.6719  1.86228939 44834
BEIDOU-3 M23            
1 44543U 19061B   26116.27266917 -.00000002  00000+0  00000+0 0  9994
2 44543  54.3929 184.4471 0005040 348.5066   0.4603  1.86227142 44828
BEIDOU-3 IGSO-3         
1 44709U 19073A   26116.86055463 -.00000201  00000+0  00000+0 0  9999
2 44709  54.8910 281.4498 0042199 188.8144 171.0242  1.00252491 23947
BEIDOU-3 M22            
1 44793U 19078A   26115.99699650 -.00000055  00000+0  00000+0 0  9999
2 44793  53.9841 301.6629 0007305  45.8856 314.1715  1.86226949 43676
BEIDOU-3 M21            
1 44794U 19078B   26116.67401454 -.00000060  00000+0  00000+0 0  9995
2 44794  53.9567 301.6016 0005184  43.3217 316.7148  1.86227493 43694
BEIDOU-3 M19            
1 44864U 19090A   26117.11905514 -.00000046  00000+0  00000+0 0  9997
2 44864  56.5169  64.4771 0019746 296.1881 199.1410  1.86231407 43285
BEIDOU-3 M20            
1 44865U 19090B   26116.40926545 -.00000038  00000+0  00000+0 0  9997
2 44865  56.5180  64.5353 0017474 308.3640 160.6881  1.86231167 43256
BEIDOU-3 G2             
1 45344U 20017A   26117.00898125 -.00000149  00000+0  00000+0 0  9993
2 45344   2.7634  46.5387 0002550 348.2319 263.5062  1.00271422 22747
BEIDOU-3 G3             
1 45807U 20040A   26117.01504794 -.00000362  00000+0  00000+0 0  9997
2 45807   2.3237  67.2979 0003763 329.8404 293.8276  1.00270278 21559
BEIDOU-3 G4             
1 56564U 23066A   26116.94952769 -.00000293  00000+0  00000+0 0  9993
2 56564   0.5570 320.0463 0002817 160.5187 216.2962  1.00272365 10880
BEIDOU-3 M28            
1 58654U 23207A   26116.75122104 -.00000044  00000+0  00000+0 0  9997
2 58654  55.7097  64.0374 0004600 323.2817  36.6572  1.86229709 15888
